{
  "type": "FeatureCollection",
  "features": [
    {
      "type": "Feature",
      "properties": {
        "norad_id": 41556,
        "name": "ZIYUAN 3-2 (ZY 3-2)",
        "group": "resource",
        "lat": 60.271248962528304,
        "lon": -102.5627479547581,
        "alt_km": 499.3112681146431,
        "timestamp": "2025-12-16T03:53:26.716218+00:00",
        "meta_object_name": "ZIYUAN 3-2 (ZY 3-2)",
        "meta_object_id": "2016-033A",
        "meta_epoch": "2025-12-15T08:25:44.616576",
        "meta_mean_motion": 15.21544526,
        "meta_eccentricity": 0.00126227,
        "meta_inclination": 97.4045,
        "meta_ra_of_asc_node": 63.4759,
        "meta_arg_of_pericenter": 238.9431,
        "meta_mean_anomaly": 121.0567,
        "meta_ephemeris_type": 0,
        "meta_classification_type": "U",
        "meta_norad_cat_id": 41556,
        "meta_element_set_no": 999,
        "meta_rev_at_epoch": 53003,
        "meta_bstar": 0.00026249288,
        "meta_mean_motion_dot": 5.857e-05,
        "meta_mean_motion_ddot": 0,
        "tle_line1": "1 41556U 16033A   25349.35121084  .00005857  00000+0  26249-3 0  9991",
        "tle_line2": "2 41556  97.4045  63.4759 0012622 238.9431 121.0567 15.21544526530037"
      },
      "geometry": {
        "type": "Point",
        "coordinates": [
          -102.5627479547581,
          60.271248962528304
        ]
      }
    },
    {
      "type": "Feature",
      "properties": {
        "norad_id": 41599,
        "name": "CARTOSAT-2C",
        "group": "resource",
        "lat": 34.67726950464379,
        "lon": 42.164328936053764,
        "alt_km": 498.7482819593997,
        "timestamp": "2025-12-16T03:53:26.716229+00:00",
        "meta_object_name": "CARTOSAT-2C",
        "meta_object_id": "2016-040A",
        "meta_epoch": "2025-12-15T21:24:50.475168",
        "meta_mean_motion": 15.19144345,
        "meta_eccentricity": 0.0011364,
        "meta_inclination": 97.4769,
        "meta_ra_of_asc_node": 47.1105,
        "meta_arg_of_pericenter": 53.4968,
        "meta_mean_anomaly": 306.7312,
        "meta_ephemeris_type": 0,
        "meta_classification_type": "U",
        "meta_norad_cat_id": 41599,
        "meta_element_set_no": 999,
        "meta_rev_at_epoch": 52588,
        "meta_bstar": 0.00017422,
        "meta_mean_motion_dot": 3.597e-05,
        "meta_mean_motion_ddot": 0,
        "tle_line1": "1 41599U 16040A   25349.89225087  .00003597  00000+0  17422-3 0  9995",
        "tle_line2": "2 41599  97.4769  47.1105 0011364  53.4968 306.7312 15.19144345525887"
      },
      "geometry": {
        "type": "Point",
        "coordinates": [
          42.164328936053764,
          34.67726950464379
        ]
      }
    },
    {
      "type": "Feature",
      "properties": {
        "norad_id": 41601,
        "name": "SKYSAT-C1",
        "group": "resource",
        "lat": -72.9623167935276,
        "lon": -176.59207511077022,
        "alt_km": 475.74310376716767,
        "timestamp": "2025-12-16T03:53:26.716240+00:00",
        "meta_object_name": "SKYSAT-C1",
        "meta_object_id": "2016-040C",
        "meta_epoch": "2025-12-15T01:42:46.396512",
        "meta_mean_motion": 15.32637767,
        "meta_eccentricity": 0.00021085,
        "meta_inclination": 96.9828,
        "meta_ra_of_asc_node": 25.9538,
        "meta_arg_of_pericenter": 8.6555,
        "meta_mean_anomaly": 351.4724,
        "meta_ephemeris_type": 0,
        "meta_classification_type": "U",
        "meta_norad_cat_id": 41601,
        "meta_element_set_no": 999,
        "meta_rev_at_epoch": 52963,
        "meta_bstar": 0.00021278585,
        "meta_mean_motion_dot": 6.635e-05,
        "meta_mean_motion_ddot": 0,
        "tle_line1": "1 41601U 16040C   25349.07137033  .00006635  00000+0  21279-3 0  9993",
        "tle_line2": "2 41601  96.9828  25.9538 0002108   8.6555 351.4724 15.32637767529636"
      },
      "geometry": {
        "type": "Point",
        "coordinates": [
          -176.59207511077022,
          -72.9623167935276
        ]
      }
    },
    {
      "type": "Feature",
      "properties": {
        "norad_id": 41603,
        "name": "LAPAN-A3",
        "group": "resource",
        "lat": 24.964869522277795,
        "lon": -15.752735369348551,
        "alt_km": 467.7125923339345,
        "timestamp": "2025-12-16T03:53:26.716250+00:00",
        "meta_object_name": "LAPAN-A3",
        "meta_object_id": "2016-040E",
        "meta_epoch": "2025-12-15T05:49:44.061312",
        "meta_mean_motion": 15.31574336,
        "meta_eccentricity": 0.00093706,
        "meta_inclination": 97.1428,
        "meta_ra_of_asc_node": 346.7083,
        "meta_arg_of_pericenter": 324.0598,
        "meta_mean_anomaly": 36.0013,
        "meta_ephemeris_type": 0,
        "meta_classification_type": "U",
        "meta_norad_cat_id": 41603,
        "meta_element_set_no": 999,
        "meta_rev_at_epoch": 52664,
        "meta_bstar": 0.00011613473,
        "meta_mean_motion_dot": 3.47e-05,
        "meta_mean_motion_ddot": 0,
        "tle_line1": "1 41603U 16040E   25349.24287108  .00003470  00000+0  11613-3 0  9998",
        "tle_line2": "2 41603  97.1428 346.7083 0009370 324.0598  36.0013 15.31574336526642"
      },
      "geometry": {
        "type": "Point",
        "coordinates": [
          -15.752735369348551,
          24.964869522277795
        ]
      }
    },
    {
      "type": "Feature",
      "properties": {
        "norad_id": 41604,
        "name": "BIROS",
        "group": "resource",
        "lat": -32.10784562298938,
        "lon": -162.72989085684026,
        "alt_km": 304.98864690582286,
        "timestamp": "2025-12-16T03:53:26.716260+00:00",
        "meta_object_name": "BIROS",
        "meta_object_id": "2016-040F",
        "meta_epoch": "2025-12-15T01:20:12.221664",
        "meta_mean_motion": 15.90659584,
        "meta_eccentricity": 0.00036552,
        "meta_inclination": 97.068,
        "meta_ra_of_asc_node": 20.5828,
        "meta_arg_of_pericenter": 143.3286,
        "meta_mean_anomaly": 216.8239,
        "meta_ephemeris_type": 0,
        "meta_classification_type": "U",
        "meta_norad_cat_id": 41604,
        "meta_element_set_no": 999,
        "meta_rev_at_epoch": 52909,
        "meta_bstar": 0.00047663709,
        "meta_mean_motion_dot": 0.00145956,
        "meta_mean_motion_ddot": 9.714412e-06,
        "tle_line1": "1 41604U 16040F   25349.05569701  .00145956  97144-5  47664-3 0  9992",
        "tle_line2": "2 41604  97.0680  20.5828 0003655 143.3286 216.8239 15.90659584529096"
      },
      "geometry": {
        "type": "Point",
        "coordinates": [
          -162.72989085684026,
          -32.10784562298938
        ]
      }
    },
    {
      "type": "Feature",
      "properties": {
        "norad_id": 41727,
        "name": "GAOFEN-3",
        "group": "resource",
        "lat": 35.9260940580613,
        "lon": -178.15395399796688,
        "alt_km": 748.6260191391921,
        "timestamp": "2025-12-16T03:53:26.716271+00:00",
        "meta_object_name": "GAOFEN-3",
        "meta_object_id": "2016-049A",
        "meta_epoch": "2025-12-15T07:14:48.085152",
        "meta_mean_motion": 14.42214351,
        "meta_eccentricity": 0.00013611,
        "meta_inclination": 98.4043,
        "meta_ra_of_asc_node": 354.8496,
        "meta_arg_of_pericenter": 60.1676,
        "meta_mean_anomaly": 299.9649,
        "meta_ephemeris_type": 0,
        "meta_classification_type": "U",
        "meta_norad_cat_id": 41727,
        "meta_element_set_no": 999,
        "meta_rev_at_epoch": 49214,
        "meta_bstar": 2.9617431e-05,
        "meta_mean_motion_dot": 5.4e-07,
        "meta_mean_motion_ddot": 0,
        "tle_line1": "1 41727U 16049A   25349.30194543  .00000054  00000+0  29617-4 0  9990",
        "tle_line2": "2 41727  98.4043 354.8496 0001361  60.1676 299.9649 14.42214351492142"
      },
      "geometry": {
        "type": "Point",
        "coordinates": [
          -178.15395399796688,
          35.9260940580613
        ]
      }
    },
    {
      "type": "Feature",
      "properties": {
        "norad_id": 41771,
        "name": "SKYSAT-C4",
        "group": "resource",
        "lat": -50.88174784684448,
        "lon": 23.795310877798308,
        "alt_km": 447.3699129057695,
        "timestamp": "2025-12-16T03:53:26.716281+00:00",
        "meta_object_name": "SKYSAT-C4",
        "meta_object_id": "2016-058B",
        "meta_epoch": "2025-12-15T07:52:15.572064",
        "meta_mean_motion": 15.42330027,
        "meta_eccentricity": 0.00017432,
        "meta_inclination": 96.9376,
        "meta_ra_of_asc_node": 14.3899,
        "meta_arg_of_pericenter": 133.027,
        "meta_mean_anomaly": 227.1125,
        "meta_ephemeris_type": 0,
        "meta_classification_type": "U",
        "meta_norad_cat_id": 41771,
        "meta_element_set_no": 999,
        "meta_rev_at_epoch": 51707,
        "meta_bstar": 0.00025732437,
        "meta_mean_motion_dot": 0.00011013,
        "meta_mean_motion_ddot": 0,
        "tle_line1": "1 41771U 16058B   25349.32795801  .00011013  00000+0  25732-3 0  9995",
        "tle_line2": "2 41771  96.9376  14.3899 0001743 133.0270 227.1125 15.42330027517074"
      },
      "geometry": {
        "type": "Point",
        "coordinates": [
          23.795310877798308,
          -50.88174784684448
        ]
      }
    }
  ]
}